{
  "type": "FeatureCollection",
  "features": [
    {
      "type": "Feature",
      "properties": {
        "norad_id": 37435,
        "name": "FENGYUN 1C DEB",
        "group": "fengyun-1c-debris",
        "lat": -9.730893182877915,
        "lon": 18.530782493776872,
        "alt_km": 799.722935362618,
        "timestamp": "2025-12-06T14:35:37.415790+00:00",
        "meta_object_name": "FENGYUN 1C DEB",
        "meta_object_id": "1999-025EHD",
        "meta_epoch": "2025-11-29T08:44:14.359776",
        "meta_mean_motion": 14.22271668,
        "meta_eccentricity": 0.00410088,
        "meta_inclination": 98.6499,
        "meta_ra_of_asc_node": 9.9283,
        "meta_arg_of_pericenter": 53.3524,
        "meta_mean_anomaly": 307.1414,
        "meta_ephemeris_type": 0,
        "meta_classification_type": "U",
        "meta_norad_cat_id": 37435,
        "meta_element_set_no": 999,
        "meta_rev_at_epoch": 88749,
        "meta_bstar": 0.00099361212,
        "meta_mean_motion_dot": 2.183e-05,
        "meta_mean_motion_ddot": 0,
        "tle_line1": "1 37435U 99025EHD 25333.36405509  .00002183  00000+0  99361-3 0  9999",
        "tle_line2": "2 37435  98.6499   9.9283 0041008  53.3524 307.1414 14.22271668887490"
      },
      "geometry": {
        "type": "Point",
        "coordinates": [
          18.530782493776872,
          -9.730893182877915
        ]
      }
    },
    {
      "type": "Feature",
      "properties": {
        "norad_id": 37436,
        "name": "FENGYUN 1C DEB",
        "group": "fengyun-1c-debris",
        "lat": 67.33793208400452,
        "lon": 13.035569663114638,
        "alt_km": 869.5419715496118,
        "timestamp": "2025-12-06T14:35:37.415799+00:00",
        "meta_object_name": "FENGYUN 1C DEB",
        "meta_object_id": "1999-025EHE",
        "meta_epoch": "2025-12-04T09:19:50.397600",
        "meta_mean_motion": 14.06323245,
        "meta_eccentricity": 0.0059476,
        "meta_inclination": 98.9377,
        "meta_ra_of_asc_node": 32.9868,
        "meta_arg_of_pericenter": 171.2405,
        "meta_mean_anomaly": 188.9815,
        "meta_ephemeris_type": 0,
        "meta_classification_type": "U",
        "meta_norad_cat_id": 37436,
        "meta_element_set_no": 999,
        "meta_rev_at_epoch": 63881,
        "meta_bstar": 0.0010409,
        "meta_mean_motion_dot": 1.7e-05,
        "meta_mean_motion_ddot": 0,
        "tle_line1": "1 37436U 99025EHE 25338.38877775  .00001700  00000+0  10409-2 0  9994",
        "tle_line2": "2 37436  98.9377  32.9868 0059476 171.2405 188.9815 14.06323245638811"
      },
      "geometry": {
        "type": "Point",
        "coordinates": [
          13.035569663114638,
          67.33793208400452
        ]
      }
    },
    {
      "type": "Feature",
      "properties": {
        "norad_id": 37437,
        "name": "FENGYUN 1C DEB",
        "group": "fengyun-1c-debris",
        "lat": 70.91946942762459,
        "lon": -53.21767349344662,
        "alt_km": 741.3399051906745,
        "timestamp": "2025-12-06T14:35:37.415810+00:00",
        "meta_object_name": "FENGYUN 1C DEB",
        "meta_object_id": "1999-025EHF",
        "meta_epoch": "2025-11-30T18:36:25.322976",
        "meta_mean_motion": 14.18810149,
        "meta_eccentricity": 0.0113368,
        "meta_inclination": 98.5859,
        "meta_ra_of_asc_node": 327.0314,
        "meta_arg_of_pericenter": 82.7284,
        "meta_mean_anomaly": 94.5607,
        "meta_ephemeris_type": 0,
        "meta_classification_type": "U",
        "meta_norad_cat_id": 37437,
        "meta_element_set_no": 999,
        "meta_rev_at_epoch": 63821,
        "meta_bstar": 0.0004989187,
        "meta_mean_motion_dot": 1.064e-05,
        "meta_mean_motion_ddot": 0,
        "tle_line1": "1 37437U 99025EHF 25334.77529309  .00001064  00000+0  49892-3 0  9993",
        "tle_line2": "2 37437  98.5859 327.0314 0113368  82.7284  94.5607 14.18810149638211"
      },
      "geometry": {
        "type": "Point",
        "coordinates": [
          -53.21767349344662,
          70.91946942762459
        ]
      }
    },
    {
      "type": "Feature",
      "properties": {
        "norad_id": 37438,
        "name": "FENGYUN 1C DEB",
        "group": "fengyun-1c-debris",
        "lat": 15.004856478117476,
        "lon": -157.92211564634533,
        "alt_km": 835.7375066945588,
        "timestamp": "2025-12-06T14:35:37.415840+00:00",
        "meta_object_name": "FENGYUN 1C DEB",
        "meta_object_id": "1999-025EHG",
        "meta_epoch": "2025-12-05T20:51:01.918944",
        "meta_mean_motion": 14.15490394,
        "meta_eccentricity": 0.00286627,
        "meta_inclination": 98.7405,
        "meta_ra_of_asc_node": 18.9899,
        "meta_arg_of_pericenter": 241.0915,
        "meta_mean_anomaly": 118.7383,
        "meta_ephemeris_type": 0,
        "meta_classification_type": "U",
        "meta_norad_cat_id": 37438,
        "meta_element_set_no": 999,
        "meta_rev_at_epoch": 60038,
        "meta_bstar": 0.0010628807,
        "meta_mean_motion_dot": 2.041e-05,
        "meta_mean_motion_ddot": 0,
        "tle_line1": "1 37438U 99025EHG 25339.86877221  .00002041  00000+0  10629-2 0  9999",
        "tle_line2": "2 37438  98.7405  18.9899 0028662 241.0915 118.7383 14.15490394600388"
      },
      "geometry": {
        "type": "Point",
        "coordinates": [
          -157.92211564634533,
          15.004856478117476
        ]
      }
    },
    {
      "type": "Feature",
      "properties": {
        "norad_id": 37441,
        "name": "FENGYUN 1C DEB",
        "group": "fengyun-1c-debris",
        "lat": -20.631929031036968,
        "lon": 4.8003224625762515,
        "alt_km": 1455.0909537809566,
        "timestamp": "2025-12-06T14:35:37.415851+00:00",
        "meta_object_name": "FENGYUN 1C DEB",
        "meta_object_id": "1999-025EHK",
        "meta_epoch": "2025-12-03T07:03:35.157888",
        "meta_mean_motion": 13.14191734,
        "meta_eccentricity": 0.0507983,
        "meta_inclination": 99.1467,
        "meta_ra_of_asc_node": 185.4052,
        "meta_arg_of_pericenter": 77.3697,
        "meta_mean_anomaly": 288.3712,
        "meta_ephemeris_type": 0,
        "meta_classification_type": "U",
        "meta_norad_cat_id": 37441,
        "meta_element_set_no": 999,
        "meta_rev_at_epoch": 82048,
        "meta_bstar": 0.00191,
        "meta_mean_motion_dot": 1.323e-05,
        "meta_mean_motion_ddot": 0,
        "tle_line1": "1 37441U 99025EHK 25337.29415692  .00001323  00000+0  19100-2 0  9993",
        "tle_line2": "2 37441  99.1467 185.4052 0507983  77.3697 288.3712 13.14191734820480"
      },
      "geometry": {
        "type": "Point",
        "coordinates": [
          4.8003224625762515,
          -20.631929031036968
        ]
      }
    },
    {
      "type": "Feature",
      "properties": {
        "norad_id": 37444,
        "name": "FENGYUN 1C DEB",
        "group": "fengyun-1c-debris",
        "lat": -48.22562765574236,
        "lon": 70.98642920598301,
        "alt_km": 639.5070505248768,
        "timestamp": "2025-12-06T14:35:37.415861+00:00",
        "meta_object_name": "FENGYUN 1C DEB",
        "meta_object_id": "1999-025EHN",
        "meta_epoch": "2025-12-05T10:37:05.220192",
        "meta_mean_motion": 14.47967354,
        "meta_eccentricity": 0.0245395,
        "meta_inclination": 99.0841,
        "meta_ra_of_asc_node": 59.4157,
        "meta_arg_of_pericenter": 10.8945,
        "meta_mean_anomaly": 349.7426,
        "meta_ephemeris_type": 0,
        "meta_classification_type": "U",
        "meta_norad_cat_id": 37444,
        "meta_element_set_no": 999,
        "meta_rev_at_epoch": 65045,
        "meta_bstar": 0.0011493751,
        "meta_mean_motion_dot": 6.186e-05,
        "meta_mean_motion_ddot": 0,
        "tle_line1": "1 37444U 99025EHN 25339.44242153  .00006186  00000+0  11494-2 0  9995",
        "tle_line2": "2 37444  99.0841  59.4157 0245395  10.8945 349.7426 14.47967354650456"
      },
      "geometry": {
        "type": "Point",
        "coordinates": [
          70.98642920598301,
          -48.22562765574236
        ]
      }
    },
    {
      "type": "Feature",
      "properties": {
        "norad_id": 37448,
        "name": "FENGYUN 1C DEB",
        "group": "fengyun-1c-debris",
        "lat": 80.35302455300928,
        "lon": -59.68448524993563,
        "alt_km": 716.1484525344795,
        "timestamp": "2025-12-06T14:35:37.415873+00:00",
        "meta_object_name": "FENGYUN 1C DEB",
        "meta_object_id": "1999-025EHS",
        "meta_epoch": "2025-12-03T09:59:46.946976",
        "meta_mean_motion": 13.87016844,
        "meta_eccentricity": 0.03074799,
        "meta_inclination": 99.3222,
        "meta_ra_of_asc_node": 42.0416,
        "meta_arg_of_pericenter": 83.7367,
        "meta_mean_anomaly": 279.8715,
        "meta_ephemeris_type": 0,
        "meta_classification_type": "U",
        "meta_norad_cat_id": 37448,
        "meta_element_set_no": 999,
        "meta_rev_at_epoch": 62246,
        "meta_bstar": 0.0019068441,
        "meta_mean_motion_dot": 3.202e-05,
        "meta_mean_motion_ddot": 0,
        "tle_line1": "1 37448U 99025EHS 25337.41651559  .00003202  00000+0  19068-2 0  9999",
        "tle_line2": "2 37448  99.3222  42.0416 0307479  83.7367 279.8715 13.87016844622467"
      },
      "geometry": {
        "type": "Point",
        "coordinates": [
          -59.68448524993563,
          80.35302455300928
        ]
      }
    }
  ]
}